{
  "type": "FeatureCollection",
  "features": [
    {
      "type": "Feature",
      "properties": {
        "norad_id": 57400,
        "name": "TIANMU-1 08",
        "group": "weather",
        "lat": 71.46036618833541,
        "lon": -112.18687328214064,
        "alt_km": 471.2054013037641,
        "timestamp": "2025-12-21T22:41:41.091244+00:00",
        "meta_object_name": "TIANMU-1 08",
        "meta_object_id": "2023-101B",
        "meta_epoch": "2025-12-21T14:22:15.321216",
        "meta_mean_motion": 15.28169488,
        "meta_eccentricity": 0.00071644,
        "meta_inclination": 97.2851,
        "meta_ra_of_asc_node": 45.0498,
        "meta_arg_of_pericenter": 58.8455,
        "meta_mean_anomaly": 301.3487,
        "meta_ephemeris_type": 0,
        "meta_classification_type": "U",
        "meta_norad_cat_id": 57400,
        "meta_element_set_no": 999,
        "meta_rev_at_epoch": 13450,
        "meta_bstar": 0.00020691769,
        "meta_mean_motion_dot": 5.612e-05,
        "meta_mean_motion_ddot": 0,
        "tle_line1": "1 57400U 23101B   25355.59878844  .00005612  00000+0  20692-3 0  9991",
        "tle_line2": "2 57400  97.2851  45.0498 0007164  58.8455 301.3487 15.28169488134504"
      },
      "geometry": {
        "type": "Point",
        "coordinates": [
          -112.18687328214064,
          71.46036618833541
        ]
      }
    },
    {
      "type": "Feature",
      "properties": {
        "norad_id": 57401,
        "name": "TIANMU-1 09",
        "group": "weather",
        "lat": -0.8687563193961191,
        "lon": -135.2135379249481,
        "alt_km": 486.7605816457244,
        "timestamp": "2025-12-21T22:41:41.091255+00:00",
        "meta_object_name": "TIANMU-1 09",
        "meta_object_id": "2023-101C",
        "meta_epoch": "2025-12-21T14:02:57.814368",
        "meta_mean_motion": 15.28202711,
        "meta_eccentricity": 0.00064441,
        "meta_inclination": 97.2808,
        "meta_ra_of_asc_node": 44.5455,
        "meta_arg_of_pericenter": 59.5843,
        "meta_mean_anomaly": 300.6033,
        "meta_ephemeris_type": 0,
        "meta_classification_type": "U",
        "meta_norad_cat_id": 57401,
        "meta_element_set_no": 999,
        "meta_rev_at_epoch": 13450,
        "meta_bstar": 0.00021132623,
        "meta_mean_motion_dot": 5.738e-05,
        "meta_mean_motion_ddot": 0,
        "tle_line1": "1 57401U 23101C   25355.58539137  .00005738  00000+0  21133-3 0  9990",
        "tle_line2": "2 57401  97.2808  44.5455 0006444  59.5843 300.6033 15.28202711134509"
      },
      "geometry": {
        "type": "Point",
        "coordinates": [
          -135.2135379249481,
          -0.8687563193961191
        ]
      }
    },
    {
      "type": "Feature",
      "properties": {
        "norad_id": 57402,
        "name": "TIANMU-1 10",
        "group": "weather",
        "lat": -7.810861713008872,
        "lon": 46.76314097872223,
        "alt_km": 482.82174520468834,
        "timestamp": "2025-12-21T22:41:41.091265+00:00",
        "meta_object_name": "TIANMU-1 10",
        "meta_object_id": "2023-101D",
        "meta_epoch": "2025-12-21T14:52:17.887008",
        "meta_mean_motion": 15.28194757,
        "meta_eccentricity": 0.00081632,
        "meta_inclination": 97.2888,
        "meta_ra_of_asc_node": 45.4382,
        "meta_arg_of_pericenter": 57.6503,
        "meta_mean_anomaly": 302.5526,
        "meta_ephemeris_type": 0,
        "meta_classification_type": "U",
        "meta_norad_cat_id": 57402,
        "meta_element_set_no": 999,
        "meta_rev_at_epoch": 13450,
        "meta_bstar": 0.00022322851,
        "meta_mean_motion_dot": 6.066e-05,
        "meta_mean_motion_ddot": 0,
        "tle_line1": "1 57402U 23101D   25355.61965147  .00006066  00000+0  22323-3 0  9996",
        "tle_line2": "2 57402  97.2888  45.4382 0008163  57.6503 302.5526 15.28194757134507"
      },
      "geometry": {
        "type": "Point",
        "coordinates": [
          46.76314097872223,
          -7.810861713008872
        ]
      }
    },
    {
      "type": "Feature",
      "properties": {
        "norad_id": 57490,
        "name": "FENGYUN 3F",
        "group": "weather",
        "lat": -81.25935503219874,
        "lon": 149.468277479028,
        "alt_km": 833.5513646443196,
        "timestamp": "2025-12-21T22:41:41.091277+00:00",
        "meta_object_name": "FENGYUN 3F",
        "meta_object_id": "2023-111A",
        "meta_epoch": "2025-12-21T14:39:31.561344",
        "meta_mean_motion": 14.19895797,
        "meta_eccentricity": 7.763e-05,
        "meta_inclination": 98.7072,
        "meta_ra_of_asc_node": 63.7606,
        "meta_arg_of_pericenter": 114.3973,
        "meta_mean_anomaly": 245.7285,
        "meta_ephemeris_type": 0,
        "meta_classification_type": "U",
        "meta_norad_cat_id": 57490,
        "meta_element_set_no": 999,
        "meta_rev_at_epoch": 12366,
        "meta_bstar": 5.5532004e-05,
        "meta_mean_motion_dot": 7.4e-07,
        "meta_mean_motion_ddot": 0,
        "tle_line1": "1 57490U 23111A   25355.61078196  .00000074  00000+0  55532-4 0  9995",
        "tle_line2": "2 57490  98.7072  63.7606 0000776 114.3973 245.7285 14.19895797123667"
      },
      "geometry": {
        "type": "Point",
        "coordinates": [
          149.468277479028,
          -81.25935503219874
        ]
      }
    },
    {
      "type": "Feature",
      "properties": {
        "norad_id": 58584,
        "name": "ARKTIKA-M 2",
        "group": "weather",
        "lat": 58.505700950535285,
        "lon": -130.5755854523033,
        "alt_km": 35192.577455412604,
        "timestamp": "2025-12-21T22:41:41.091307+00:00",
        "meta_object_name": "ARKTIKA-M 2",
        "meta_object_id": "2023-198A",
        "meta_epoch": "2025-12-20T07:20:06.590112",
        "meta_mean_motion": 2.00602824,
        "meta_eccentricity": 0.68654675,
        "meta_inclination": 63.225,
        "meta_ra_of_asc_node": 174.0676,
        "meta_arg_of_pericenter": 268.0739,
        "meta_mean_anomaly": 18.8406,
        "meta_ephemeris_type": 0,
        "meta_classification_type": "U",
        "meta_norad_cat_id": 58584,
        "meta_element_set_no": 999,
        "meta_rev_at_epoch": 1473,
        "meta_bstar": 0,
        "meta_mean_motion_dot": 2.01e-06,
        "meta_mean_motion_ddot": 0,
        "tle_line1": "1 58584U 23198A   25354.30563183  .00000201  00000+0  00000+0 0  9992",
        "tle_line2": "2 58584  63.2250 174.0676 6865467 268.0739  18.8406  2.00602824 14734"
      },
      "geometry": {
        "type": "Point",
        "coordinates": [
          -130.5755854523033,
          58.505700950535285
        ]
      }
    },
    {
      "type": "Feature",
      "properties": {
        "norad_id": 58645,
        "name": "TIANMU-1 11",
        "group": "weather",
        "lat": 55.39016806061034,
        "lon": 4.612815398818703,
        "alt_km": 490.67229057835084,
        "timestamp": "2025-12-21T22:41:41.091323+00:00",
        "meta_object_name": "TIANMU-1 11",
        "meta_object_id": "2023-205A",
        "meta_epoch": "2025-12-21T14:34:26.406048",
        "meta_mean_motion": 15.24698296,
        "meta_eccentricity": 0.00075191,
        "meta_inclination": 97.3594,
        "meta_ra_of_asc_node": 15.0748,
        "meta_arg_of_pericenter": 272.5906,
        "meta_mean_anomaly": 87.4471,
        "meta_ephemeris_type": 0,
        "meta_classification_type": "U",
        "meta_norad_cat_id": 58645,
        "meta_element_set_no": 999,
        "meta_rev_at_epoch": 11044,
        "meta_bstar": 0.00020545448,
        "meta_mean_motion_dot": 5.013e-05,
        "meta_mean_motion_ddot": 0,
        "tle_line1": "1 58645U 23205A   25355.60725007  .00005013  00000+0  20545-3 0  9994",
        "tle_line2": "2 58645  97.3594  15.0748 0007519 272.5906  87.4471 15.24698296110448"
      },
      "geometry": {
        "type": "Point",
        "coordinates": [
          4.612815398818703,
          55.39016806061034
        ]
      }
    },
    {
      "type": "Feature",
      "properties": {
        "norad_id": 58646,
        "name": "TIANMU-1 12",
        "group": "weather",
        "lat": -80.82315738885217,
        "lon": 142.08763934448712,
        "alt_km": 495.51893891550844,
        "timestamp": "2025-12-21T22:41:41.091336+00:00",
        "meta_object_name": "TIANMU-1 12",
        "meta_object_id": "2023-205B",
        "meta_epoch": "2025-12-21T15:14:12.937344",
        "meta_mean_motion": 15.24583716,
        "meta_eccentricity": 0.00058311,
        "meta_inclination": 97.3582,
        "meta_ra_of_asc_node": 14.9043,
        "meta_arg_of_pericenter": 250.8717,
        "meta_mean_anomaly": 109.189,
        "meta_ephemeris_type": 0,
        "meta_classification_type": "U",
        "meta_norad_cat_id": 58646,
        "meta_element_set_no": 999,
        "meta_rev_at_epoch": 11043,
        "meta_bstar": 0.00019982215,
        "meta_mean_motion_dot": 4.855e-05,
        "meta_mean_motion_ddot": 0,
        "tle_line1": "1 58646U 23205B   25355.63487196  .00004855  00000+0  19982-3 0  9998",
        "tle_line2": "2 58646  97.3582  14.9043 0005831 250.8717 109.1890 15.24583716110432"
      },
      "geometry": {
        "type": "Point",
        "coordinates": [
          142.08763934448712,
          -80.82315738885217
        ]
      }
    }
  ]
}